ONEWEB-0553             
1 56055U 23043K   23243.01215249  .00002437  00000+0  25640-3 0  9996
2 56055  86.8970  81.8769 0003519 116.5716 243.5872 14.89001346 24547
ONEWEB-0554             
1 56056U 23043L   23242.81958019  .00001822  00000+0  19095-3 0  9997
2 56056  86.8896  81.8364 0002564  39.6746 320.4668 14.88996636 23601
ONEWEB-0555             
1 56057U 23043M   23243.31855552  .00001916  00000+0  20110-3 0  9996
2 56057  86.8929  81.6919 0000916  81.3275 278.8055 14.88983465 24583
ONEWEB-0557             
1 56058U 23043N   23243.00622676  .00001851  00000+0  19402-3 0  9992
2 56058  86.8894  81.7521 0002019  69.9568 290.1876 14.89007754 24541
ONEWEB-0558             
1 56059U 23043P   23243.58334491  .00000015  00000+0  00000+0 0  9992
2 56059  87.8082  87.2679 0004770  82.1137  47.7533 13.56165391 24295
ONEWEB-0559             
1 56060U 23043Q   23243.58334491  .00000014  00000+0  00000+0 0  9993
2 56060  87.8455  87.2503 0002611 112.8338 116.4381 13.55781838 24310
ONEWEB-0566             
1 56061U 23043R   23243.58334491  .00000015  00000+0  00000+0 0  9995
2 56061  87.8053  87.2685 0004268 103.9359  93.4308 13.55840981 24295
ONEWEB-0568             
1 56062U 23043S   23242.79920105  .00001950  00000+0  20445-3 0  9999
2 56062  86.9012  82.0114 0001252  79.2679 280.8689 14.89021679 23590
